*******************************************************************************
 Revised: Jun 17, 2016           Ganymede / (Jupiter)                       503

 SATELLITE PHYSICAL PROPERTIES:
  Radius (km)             = 2634   +- 10     Density (g cm^-3)  =  1.94 +- 0.02
  Mass (10^20 kg )        = 1482   +- 1      Geometric Albedo   =  0.4

 SATELLITE ORBITAL DATA:
  Semi-major axis, a (km) = 1070.0428 (10^3) Orbital period     = 7.154553 d
  Eccentricity, e         = 0.0006           Rotational period  = Synchronous
  Inclination, i  (deg)   = 0.186
*******************************************************************************
 

 

*******************************************************************************
Ephemeris / WWW_USER Thu Dec 26 16:03:15 2019 Pasadena, USA      / Horizons    
*******************************************************************************
Target body name: Ganymede (503)                  {source: jup310}
Center body name: Sun (10)                        {source: DE431mx}
Center-site name: BODY CENTER
*******************************************************************************
Start time      : A.D. 2019-Dec-26 00:00:00.0000 TDB
Stop  time      : A.D. 2020-Jan-25 00:00:00.0000 TDB
Step-size       : 1440 minutes
*******************************************************************************
Center geodetic : 0.00000000,0.00000000,0.0000000 {E-lon(deg),Lat(deg),Alt(km)}
Center cylindric: 0.00000000,0.00000000,0.0000000 {E-lon(deg),Dxy(km),Dz(km)}
Center radii    : 696000.0 x 696000.0 x 696000.0 k{Equator, meridian, pole}    
Keplerian GM    : 1.3271244992975928E+11 km^3/s^2
Output units    : KM-S, deg                                                    
Output type     : GEOMETRIC osculating elements
Output format   : 10
Reference frame : ICRF/J2000.0                                                 
Coordinate systm: Ecliptic and Mean Equinox of Reference Epoch                 
*******************************************************************************
            JDTDB,            Calendar Date (TDB),                     EC,                     QR,                     IN,                     OM,                      W,                     Tp,                      N,                     MA,                     TA,                      A,                     AD,                     PR,
**************************************************************************************************************************************************************************************************************************************************************************************************************************************************
$$SOE
2458843.500000000, A.D. 2019-Dec-26 00:00:00.0000,  2.302959737139994E+00,  7.805692031690389E+08,  5.061277581714578E-01,  1.084798143623306E+02,  1.609450850890456E+02, -3.366311960031818E+06,  1.423501209744703E-06,  4.791949147483356E+00,  5.841395255350947E+00, -5.990739244808843E+08,  9.999999000000000E+99,  9.999999000000000E+99,
2458844.500000000, A.D. 2019-Dec-27 00:00:00.0000,  1.978453403490981E+00,  7.219738839519904E+08,  3.142962258154984E-01,  2.538523713845275E+02,  4.962815926103423E+01,  1.596853425043938E+07,  1.041373341785546E-06, -1.662920587579702E+01,  3.319335410126066E+02, -7.378725255347792E+08,  9.999999000000000E+99,  9.999999000000000E+99,
2458845.500000000, A.D. 2019-Dec-28 00:00:00.0000,  9.034279270503729E-01,  4.292756729336922E+08,  5.732676179313080E-01,  2.638063426303526E+02,  9.889694623929427E+01,  4.233907998142308E+07,  7.042897693328733E-08,  3.570181019126118E+02,  2.728233302765497E+02,  4.445132633298722E+09,  8.460989593663753E+09,  5.111532435591163E+09,
2458846.500000000, A.D. 2019-Dec-29 00:00:00.0000,  8.913509256007585E-01,  5.647204387311559E+07,  1.876302567313808E+00,  9.913979827983783E+01,  3.420304391971216E+02,  4.668616553088339E+07,  1.761437558819674E-06,  2.777652345566295E+02,  1.944095473079714E+02,  5.197655312331846E+08,  9.830590185932537E+08,  2.043785192369993E+08,
2458847.500000000, A.D. 2019-Dec-30 00:00:00.0000,  9.687116857794564E-01,  1.245450032456710E+07,  1.359977281370843E+01,  9.607211347862705E+01,  3.497279902433281E-01, -6.353333891504089E+07,  2.628223232231661E-06,  1.669797973577583E+02,  1.791644217875856E+02,  3.980559718487364E+08,  7.836574433729057E+08,  1.369746662251056E+08,
2458848.500000000, A.D. 2019-Dec-31 00:00:00.0000,  7.732287525919577E-01,  1.438851340572267E+08,  5.760025178566397E+00,  9.671744482266591E+01,  2.832022811564784E+01, -4.990461771164896E+07,  1.305980103450606E-06,  6.517443780172225E+01,  1.505836926935991E+02,  6.344946094437014E+08,  1.125104084830176E+09,  2.756550417949117E+08,
2458849.500000000, A.D. 2020-Jan-01 00:00:00.0000,  1.124499743032324E+00,  5.965023353209147E+08,  2.162447260374748E+00,  9.849701091721526E+01,  1.206482416467164E+02, -3.276397114069387E+07,  6.293799822111187E-08,  2.062098757369551E+00,  5.655509647667898E+01, -4.791193305242764E+09,  9.999999000000000E+99,  9.999999000000000E+99,
2458850.500000000, A.D. 2020-Jan-02 00:00:00.0000,  2.210317832447474E+00,  7.723531416572478E+08,  6.618193286816234E-01,  1.047495019017575E+02,  1.596854965677671E+02, -6.600327885552865E+06,  1.294803121265483E-06,  8.546125147589454E+00,  1.139537835189723E+01, -6.381407601798410E+08,  9.999999000000000E+99,  9.999999000000000E+99,
2458851.500000000, A.D. 2020-Jan-03 00:00:00.0000,  2.129165064350937E+00,  7.443950845025990E+08,  2.171802633199740E-01,  2.479390952972878E+02,  4.994632748624956E+01,  1.246455477363228E+07,  1.233131437996044E-06, -1.537043435198964E+01,  3.380942546470898E+02, -6.592438147477485E+08,  9.999999000000000E+99,  9.999999000000000E+99,
2458852.500000000, A.D. 2020-Jan-04 00:00:00.0000,  1.041992997258285E+00,  5.009618595015721E+08,  5.752359134631775E-01,  2.657878750194466E+02,  8.311791395313701E+01,  3.783601419243820E+07,  1.601905094583336E-08, -6.060970389359416E-01,  2.871949098651748E+02, -1.192965237561682E+10,  9.999999000000000E+99,  9.999999000000000E+99,
2458853.500000000, A.D. 2020-Jan-05 00:00:00.0000,  8.509576915969137E-01,  8.806018133986509E+07,  9.837924943190720E-01,  1.021895834658606E+02,  3.323987045110775E+02,  4.617508965902389E+07,  1.453360842972497E-06,  2.928909327688304E+02,  2.015759054973902E+02,  5.908401599746134E+08,  1.093620138609362E+09,  2.477017333587352E+08,
2458854.500000000, A.D. 2020-Jan-06 00:00:00.0000,  9.721624308739893E-01,  1.102922238903300E+07,  1.298820228874056E+01,  9.662628402521953E+01,  3.591449546790023E+02,  6.547682510838979E+07,  2.646720539966451E-06,  1.867011420938337E+02,  1.804039258039733E+02,  3.961991917867453E+08,  7.813691611844577E+08,  1.360173824791352E+08,
2458855.500000000, A.D. 2020-Jan-07 00:00:00.0000,  8.255939572919647E-01,  9.575620384492525E+07,  6.836474719493852E+00,  9.702115921662826E+01,  1.910618637845488E+01, -4.939740015063944E+07,  1.622446469775480E-06,  8.014463749049170E+01,  1.600757949235832E+02,  5.490417783587134E+08,  1.002327352872501E+09,  2.218871356968826E+08,
2458856.500000000, A.D. 2020-Jan-08 00:00:00.0000,  9.490628691464604E-01,  5.358283387063992E+08,  2.521408368482942E+00,  9.838218075477380E+01,  1.086090618613240E+02, -3.870487439974058E+07,  1.934602148274141E-08,  7.487853316241816E-01,  6.928166307163241E+01,  1.051940558346472E+10,  2.050298282822305E+10,  1.860847721693869E+10,
2458857.500000000, A.D. 2020-Jan-09 00:00:00.0000,  2.080216544371447E+00,  7.589666739120853E+08,  8.335229052580295E-01,  1.025639701852233E+02,  1.566567921065894E+02, -1.000589864988262E+07,  1.120754890763205E-06,  1.121415984833689E+01,  1.717485767717138E+01, -7.026060449330647E+08,  9.999999000000000E+99,  9.999999000000000E+99,
2458858.500000000, A.D. 2020-Jan-10 00:00:00.0000,  2.247703488638964E+00,  7.613099847243876E+08,  1.224460703429239E-01,  2.301245437533304E+02,  6.251602270384105E+01,  9.155451467193302E+06,  1.384851676894201E-06, -1.267894231706612E+01,  3.439044749918663E+02, -6.101689958043242E+08,  9.999999000000000E+99,  9.999999000000000E+99,
2458859.500000000, A.D. 2020-Jan-11 00:00:00.0000,  1.215673769069297E+00,  5.622855122081350E+08,  5.506088920319360E-01,  2.673212693115138E+02,  7.012962632431876E+01,  3.294564135720452E+07,  1.567974939585082E-07, -5.165794001665454E+00,  2.992228016610816E+02, -2.607111261766237E+09,  9.999999000000000E+99,  9.999999000000000E+99,
2458860.500000000, A.D. 2020-Jan-12 00:00:00.0000,  8.091905462833395E-01,  1.331623624691771E+08,  4.046408412786097E-01,  1.095939051215899E+02,  3.158613069317092E+02,  4.645168931222878E+07,  1.132155447809984E-06,  3.074094668851833E+02,  2.112922628871407E+02,  6.978813673819038E+08,  1.262600372294631E+09,  3.179775362971364E+08,
2458861.500000000, A.D. 2020-Jan-13 00:00:00.0000,  9.702001243077827E-01,  1.196438800450493E+07,  1.099600355589634E+01,  9.722939717117110E+01,  3.578733455860445E+02,  5.920126269211053E+07,  2.594564139548025E-06,  2.063985268030876E+02,  1.816628790112818E+02,  4.014912051337702E+08,  7.910180222630355E+08,  1.387516286503182E+08,
2458862.500000000, A.D. 2020-Jan-14 00:00:00.0000,  8.736065141565892E-01,  6.206449092712563E+07,  8.149110821239995E+00,  9.738440229930698E+01,  1.245966500142400E+01, -4.978752852026945E+07,  1.918230123184643E-06,  9.550393696649542E+01,  1.669427764468978E+02,  4.910418485017303E+08,  9.200192060763350E+08,  1.876729990051081E+08,
2458863.500000000, A.D. 2020-Jan-15 00:00:00.0000,  8.129116690551889E-01,  4.623460038247740E+08,  2.940934835676947E+00,  9.840846771913728E+01,  9.357692112686490E+01, -4.442078222744858E+07,  1.699017507721279E-07,  7.547168671110916E+00,  8.486231010394464E+01,  2.471271198422100E+09,  4.480196393019426E+09,  2.118871632363763E+09,
